H1 CPF  1  HTS 2022 11 30 12  8341 larets           NONE
H2  0304206 5557    27944 2022 11 30  0  0  0 2022 12 05  0  0  0   180 1 1  0 0 0
H5  0.0560 
H9 
10 0 59916  82440.00000  0    4114568.431    5385695.320   -2017183.225
10 0 59916  82620.00000  0    4498687.213    5406250.131    -707214.883
10 0 59916  82800.00000  0    4717228.510    5222486.954     628619.747
10 0 59916  82980.00000  0    4756805.730    4845350.590    1941410.902
10 0 59916  83160.00000  0    4610968.991    4293164.942    3182984.746
10 0 59916  83340.00000  0    4280647.285    3590788.267    4307723.887
10 0 59916  83520.00000  0    3774272.096    2768497.238    5274285.523
10 0 59916  83700.00000  0    3107582.979    1860665.286    6047146.485
10 0 59916  83880.00000  0    2303119.044     904299.661    6597910.207
10 0 59916  84060.00000  0    1389433.063     -62489.546    6906333.081
10 0 59916  84240.00000  0     400057.163   -1002019.670    6961052.446
10 0 59916  84420.00000  0    -627744.692   -1878517.107    6759999.052
10 0 59916  84600.00000  0   -1654394.091   -2659495.157    6310476.133
10 0 59916  84780.00000  0   -2639530.475   -3316974.867    5628907.012
10 0 59916  84960.00000  0   -3543612.857   -3828513.752    4740268.878
10 0 59916  85140.00000  0   -4329544.357   -4178006.455    3677202.304
10 0 59916  85320.00000  0   -4964233.063   -4356214.724    2478815.454
10 0 59916  85500.00000  0   -5420020.977   -4361007.305    1189230.413
10 0 59916  85680.00000  0   -5675912.793   -4197293.064    -144083.768
10 0 59916  85860.00000  0   -5718534.939   -3876646.141   -1472118.847
10 0 59916  86040.00000  0   -5542771.949   -3416643.699   -2746195.168
10 0 59916  86220.00000  0   -5152043.749   -2839952.891   -3919794.819
10 0 59917      0.00000  0   -4558223.739   -2173227.479   -4950273.460
10 0 59917    180.00000  0   -3781214.208   -1445876.678   -5800386.418
10 0 59917    360.00000  0   -2848209.552    -688769.697   -6439577.144
10 0 59917    540.00000  0   -1792691.736      67062.801   -6844993.684
10 0 59917    720.00000  0    -653205.586     791673.189   -7002217.851
10 0 59917    900.00000  0     528033.847    1457345.487   -6905707.739
10 0 59917   1080.00000  0    1706662.106    2039618.656   -6558963.206
10 0 59917   1260.00000  0    2837784.292    2518160.487   -5974413.792
10 0 59917   1440.00000  0    3877645.212    2877467.344   -5173018.157
10 0 59917   1620.00000  0    4785298.608    3107368.281   -4183585.260
10 0 59917   1800.00000  0    5524228.529    3203318.559   -3041818.586
10 0 59917   1980.00000  0    6063852.055    3166465.203   -1789093.386
10 0 59917   2160.00000  0    6380837.437    3003478.080    -470996.446
10 0 59917   2340.00000  0    6460163.749    2726142.361     864329.098
10 0 59917   2520.00000  0    6295858.357    2350726.440    2167967.225
10 0 59917   2700.00000  0    5891368.592    1897159.514    3392063.777
10 0 59917   2880.00000  0    5259539.149    1388054.994    4491635.338
10 0 59917   3060.00000  0    4422190.378     847630.916    5426262.004
10 0 59917   3240.00000  0    3409327.651     300585.879    6161592.435
10 0 59917   3420.00000  0    2258016.417    -229014.240    6670606.300
10 0 59917   3600.00000  0    1010985.422    -718782.657    6934589.653
10 0 59917   3780.00000  0    -284988.426   -1148954.014    6943810.170
10 0 59917   3960.00000  0   -1580857.381   -1503185.772    6697866.084
10 0 59917   4140.00000  0   -2827172.933   -1769187.324    6205704.184
10 0 59917   4320.00000  0   -3975987.315   -1939153.306    5485317.120
10 0 59917   4500.00000  0   -4982737.000   -2009994.289    4563119.881
10 0 59917   4680.00000  0   -5808026.753   -1983352.103    3472998.752
10 0 59917   4860.00000  0   -6419230.111   -1865393.070    2255067.034
10 0 59917   5040.00000  0   -6791839.998   -1666393.257     954171.825
10 0 59917   5220.00000  0   -6910498.411   -1400133.641    -381806.191
10 0 59917   5400.00000  0   -6769638.034   -1083132.522   -1703779.921
10 0 59917   5580.00000  0   -6373705.316    -733760.591   -2963321.306
10 0 59917   5760.00000  0   -5736961.864    -371290.687   -4114476.778
10 0 59917   5940.00000  0   -4882883.254     -14929.669   -5115454.991
10 0 59917   6120.00000  0   -3843198.074     317117.252   -5930114.781
10 0 59917   6300.00000  0   -2656627.471     608500.905   -6529205.450
10 0 59917   6480.00000  0   -1367395.324     845465.193   -6891329.056
10 0 59917   6660.00000  0     -23574.722    1017441.798   -7003620.005
10 0 59917   6840.00000  0    1324670.765    1117485.673   -6862137.976
10 0 59917   7020.00000  0    2626904.860    1142539.876   -6471987.701
10 0 59917   7200.00000  0    3834256.051    1093524.599   -5847152.827
10 0 59917   7380.00000  0    4901214.327     975246.147   -5010043.992
10 0 59917   7560.00000  0    5787339.615     796128.926   -3990771.451
10 0 59917   7740.00000  0    6458825.686     567778.373   -2826139.931
10 0 59917   7920.00000  0    6889851.189     304387.844   -1558383.834
10 0 59917   8100.00000  0    7063654.114      22012.604    -233668.750
10 0 59917   8280.00000  0    6973259.484    -262256.663    1099591.520
10 0 59917   8460.00000  0    6621818.090    -531181.022    2392532.988
10 0 59917   8640.00000  0    6022525.901    -768276.192    3597681.677
10 0 59917   8820.00000  0    5198118.509    -958681.317    4670745.664
10 0 59917   9000.00000  0    4179974.440   -1089948.263    5572278.198
10 0 59917   9180.00000  0    3006868.951   -1152709.267    6269144.061
10 0 59917   9360.00000  0    1723445.973   -1141190.359    6735733.175
10 0 59917   9540.00000  0     378478.165   -1053551.490    6954888.087
10 0 59917   9720.00000  0    -977018.403    -892035.960    6918518.817
10 0 59917   9900.00000  0   -2291737.693    -662923.358    6627890.971
10 0 59917  10080.00000  0   -3516039.152    -376286.666    6093590.023
10 0 59917  10260.00000  0   -4603847.434     -45560.915    5335162.818
10 0 59917  10440.00000  0   -5514433.841     313060.721    4380431.782
10 0 59917  10620.00000  0   -6214002.749     681380.609    3264490.569
10 0 59917  10800.00000  0   -6677010.714    1040069.360    2028412.515
10 0 59917  10980.00000  0   -6887158.447    1369616.422     717713.901
10 0 59917  11160.00000  0   -6838001.564    1651309.348    -619373.153
10 0 59917  11340.00000  0   -6533139.200    1868189.550   -1933741.364
10 0 59917  11520.00000  0   -5985975.416    2005932.354   -3177270.159
10 0 59917  11700.00000  0   -5219072.667    2053608.058   -4304628.383
10 0 59917  11880.00000  0   -4263135.726    2004280.836   -5274931.105
10 0 59917  12060.00000  0   -3155698.868    1855422.116   -6053182.232
10 0 59917  12240.00000  0   -1939594.654    1609126.722   -6611464.819
10 0 59917  12420.00000  0    -661272.247    1272127.310   -6929857.611
10 0 59917  12600.00000  0     630963.704     855610.862   -6997060.940
10 0 59917  12780.00000  0    1888731.636     374849.026   -6810743.489
10 0 59917  12960.00000  0    3065333.117    -151349.605   -6377610.305
10 0 59917  13140.00000  0    4117441.826    -701350.404   -5713182.986
10 0 59917  13320.00000  0    5006673.286   -1251546.545   -4841299.566
10 0 59917  13500.00000  0    5700995.187   -1777333.392   -3793339.342
10 0 59917  13680.00000  0    6175926.217   -2254170.522   -2607170.619
10 0 59917  13860.00000  0    6415466.720   -2658688.619   -1325839.957
10 0 59917  14040.00000  0    6412709.714   -2969790.889       3962.782
10 0 59917  14220.00000  0    6170093.710   -3169693.376    1333610.626
10 0 59917  14400.00000  0    5699273.820   -3244848.448    2614352.488
10 0 59917  14580.00000  0    5020602.365   -3186698.107    3799151.681
10 0 59917  14760.00000  0    4162246.846   -2992212.688    4844459.327
10 0 59917  14940.00000  0    3158996.177   -2664190.077    5711847.395
10 0 59917  15120.00000  0    2050809.103   -2211299.600    6369436.260
10 0 59917  15300.00000  0     881182.235   -1647867.388    6793059.272
10 0 59917  15480.00000  0    -304588.949    -993417.245    6967134.146
10 0 59917  15660.00000  0   -1461184.906    -271982.804    6885219.189
10 0 59917  15840.00000  0   -2545006.823     488783.664    6550246.917
10 0 59917  16020.00000  0   -3515835.920    1258677.458    5974431.969
10 0 59917  16200.00000  0   -4338353.539    2006146.650    5178851.920
10 0 59917  16380.00000  0   -4983470.202    2699594.936    4192704.413
10 0 59917  16560.00000  0   -5429405.950    3308732.032    3052249.317
10 0 59917  16740.00000  0   -5662470.026    3805909.075    1799469.813
10 0 59917  16920.00000  0   -5677505.863    4167378.316     480497.402
10 0 59917  17100.00000  0   -5477970.477    4374407.087    -856142.395
10 0 59917  17280.00000  0   -5075644.391    4414185.998   -2161378.938
10 0 59917  17460.00000  0   -4489987.573    4280484.234   -3387459.776
10 0 59917  17640.00000  0   -3747177.504    3974014.297   -4489732.681
10 0 59917  17820.00000  0   -2878895.798    3502499.520   -5428263.999
10 0 59917  18000.00000  0   -1920939.830    2880454.788   -6169235.995
10 0 59917  18180.00000  0    -911728.689    2128700.891   -6686092.960
10 0 59917  18360.00000  0     109234.634    1273635.829   -6960406.609
10 0 59917  18540.00000  0    1102879.390     346301.143   -6982454.612
10 0 59917  18720.00000  0    2032020.087    -618726.393   -6751518.681
10 0 59917  18900.00000  0    2862706.750   -1584589.823   -6275895.673
10 0 59917  19080.00000  0    3565433.904   -2513515.931   -5572628.564
10 0 59917  19260.00000  0    4116181.992   -3368256.424   -4666962.137
10 0 59917  19440.00000  0    4497255.876   -4113567.002   -3591513.182
10 0 59917  19620.00000  0    4697883.402   -4717660.821   -2385170.415
10 0 59917  19800.00000  0    4714553.313   -5153582.012   -1091744.697
10 0 59917  19980.00000  0    4551062.253   -5400432.698     241600.844
10 0 59917  20160.00000  0    4218256.580   -5444381.485    1566084.292
10 0 59917  20340.00000  0    3733476.433   -5279393.829    2833129.692
99
